[
	{
		"_id": "6340388602fb02fe15912b90",
		"city": "kilcoole",
		"street": "new road",
		"number": 7682,
		"zipcode": "12926-3874"
	},
	{
		"_id": "6340388602fb02fe15912b90",
		"city": "kilcoole",
		"street": "Lovers Ln",
		"number": 7267,
		"zipcode": "12926-3874"
	},
	{
		"_id": "6340388602fb02fe15912b90",
		"city": "Cullman",
		"street": "Frances Ct",
		"number": 86,
		"zipcode": "29567-1452"
	},
	{
		"_id": "6340388602fb02fe15912b90",
		"city": "San Antonio",
		"street": "Hunters Creek Dr",
		"number": 6454,
		"zipcode": "98234-1734"
	},
	{
		"_id": "6340388602fb02fe15912b90",
		"city": "san Antonio",
		"street": "adams St",
		"number": 245,
		"zipcode": "80796-1234"
	},
	{
		"_id": "6340388602fb02fe15912b90",
		"city": "el paso",
		"street": "prospect st",
		"number": 124,
		"zipcode": "12346-0456"
	},
	{
		"_id": "6340388602fb02fe15912b90",
		"city": "fresno",
		"street": "saddle st",
		"number": 1342,
		"zipcode": "96378-0245"
	},
	{
		"_id": "6340388602fb02fe15912b90",
		"city": "mesa",
		"street": "vally view ln",
		"number": 1342,
		"zipcode": "96378-0245"
	},
	{
		"_id": "6340388602fb02fe15912b90",
		"city": "miami",
		"street": "avondale ave",
		"number": 345,
		"zipcode": "96378-0245"
	},
	{
		"_id": "6340388602fb02fe15912b90",
		"city": "fort wayne",
		"street": "oak lawn ave",
		"number": 526,
		"zipcode": "10256-4532"
	}
]